[{"OBJECT_NAME":"UNKNOWN","OBJECT_ID":"","EPOCH":"2026-04-18T22:01:52.401504","MEAN_MOTION":12.33684423,"ECCENTRICITY":0.0755939,"INCLINATION":67.5264,"RA_OF_ASC_NODE":330.4047,"ARG_OF_PERICENTER":24.5335,"MEAN_ANOMALY":338.9749,"EPHEMERIS_TYPE":0,"CLASSIFICATION_TYPE":"U","NORAD_CAT_ID":82272,"ELEMENT_SET_NO":999,"REV_AT_EPOCH":28762,"BSTAR":0.0010453,"MEAN_MOTION_DOT":2.94e-6,"MEAN_MOTION_DDOT":0},{"OBJECT_NAME":"UNKNOWN","OBJECT_ID":"","EPOCH":"2026-04-24T15:34:13.861920","MEAN_MOTION":13.94457611,"ECCENTRICITY":0.0049709,"INCLINATION":81.917,"RA_OF_ASC_NODE":247.637,"ARG_OF_PERICENTER":257.0358,"MEAN_ANOMALY":122.2498,"EPHEMERIS_TYPE":0,"CLASSIFICATION_TYPE":"U","NORAD_CAT_ID":82303,"ELEMENT_SET_NO":999,"REV_AT_EPOCH":53290,"BSTAR":0.019257,"MEAN_MOTION_DOT":0.00026012,"MEAN_MOTION_DDOT":0},{"OBJECT_NAME":"UNKNOWN","OBJECT_ID":"","EPOCH":"2026-04-25T01:44:38.782176","MEAN_MOTION":13.54718159,"ECCENTRICITY":0.0106318,"INCLINATION":99.4171,"RA_OF_ASC_NODE":167.7834,"ARG_OF_PERICENTER":331.5094,"MEAN_ANOMALY":28.0258,"EPHEMERIS_TYPE":0,"CLASSIFICATION_TYPE":"U","NORAD_CAT_ID":82311,"ELEMENT_SET_NO":999,"REV_AT_EPOCH":56837,"BSTAR":0.00073685,"MEAN_MOTION_DOT":4.81e-6,"MEAN_MOTION_DDOT":0},{"OBJECT_NAME":"UNKNOWN","OBJECT_ID":"","EPOCH":"2026-04-24T17:08:38.099040","MEAN_MOTION":13.15745593,"ECCENTRICITY":0.0451151,"INCLINATION":66.9371,"RA_OF_ASC_NODE":269.2207,"ARG_OF_PERICENTER":79.976,"MEAN_ANOMALY":285.1862,"EPHEMERIS_TYPE":0,"CLASSIFICATION_TYPE":"U","NORAD_CAT_ID":82363,"ELEMENT_SET_NO":999,"REV_AT_EPOCH":30775,"BSTAR":0.00050786,"MEAN_MOTION_DOT":2.61e-6,"MEAN_MOTION_DDOT":0},{"OBJECT_NAME":"UNKNOWN","OBJECT_ID":"","EPOCH":"2026-04-24T11:44:04.309728","MEAN_MOTION":13.98251467,"ECCENTRICITY":0.008285,"INCLINATION":98.8919,"RA_OF_ASC_NODE":130.5353,"ARG_OF_PERICENTER":332.6498,"MEAN_ANOMALY":27.0316,"EPHEMERIS_TYPE":0,"CLASSIFICATION_TYPE":"U","NORAD_CAT_ID":82369,"ELEMENT_SET_NO":999,"REV_AT_EPOCH":57572,"BSTAR":7.7057e-5,"MEAN_MOTION_DOT":7.0e-7,"MEAN_MOTION_DDOT":0},{"OBJECT_NAME":"UNKNOWN","OBJECT_ID":"","EPOCH":"2026-04-25T11:47:32.566560","MEAN_MOTION":14.87975543,"ECCENTRICITY":0.0009831,"INCLINATION":98.3884,"RA_OF_ASC_NODE":352.2359,"ARG_OF_PERICENTER":70.6716,"MEAN_ANOMALY":289.5561,"EPHEMERIS_TYPE":0,"CLASSIFICATION_TYPE":"U","NORAD_CAT_ID":82381,"ELEMENT_SET_NO":999,"REV_AT_EPOCH":53065,"BSTAR":0.0022862,"MEAN_MOTION_DOT":0.00020983,"MEAN_MOTION_DDOT":0},{"OBJECT_NAME":"UNKNOWN","OBJECT_ID":"","EPOCH":"2026-04-25T09:22:57.409536","MEAN_MOTION":15.05385382,"ECCENTRICITY":0.0009583,"INCLINATION":86.6565,"RA_OF_ASC_NODE":97.7541,"ARG_OF_PERICENTER":55.618,"MEAN_ANOMALY":304.596,"EPHEMERIS_TYPE":0,"CLASSIFICATION_TYPE":"U","NORAD_CAT_ID":82402,"ELEMENT_SET_NO":999,"REV_AT_EPOCH":47456,"BSTAR":0.00041719,"MEAN_MOTION_DOT":6.015e-5,"MEAN_MOTION_DDOT":0},{"OBJECT_NAME":"UNKNOWN","OBJECT_ID":"","EPOCH":"2026-04-24T21:37:43.146912","MEAN_MOTION":14.59094746,"ECCENTRICITY":0.0057063,"INCLINATION":74.0044,"RA_OF_ASC_NODE":86.4806,"ARG_OF_PERICENTER":219.0226,"MEAN_ANOMALY":140.6816,"EPHEMERIS_TYPE":0,"CLASSIFICATION_TYPE":"U","NORAD_CAT_ID":82432,"ELEMENT_SET_NO":999,"REV_AT_EPOCH":50232,"BSTAR":0.0002378,"MEAN_MOTION_DOT":1.113e-5,"MEAN_MOTION_DDOT":0},{"OBJECT_NAME":"UNKNOWN","OBJECT_ID":"","EPOCH":"2026-04-24T18:08:00.337344","MEAN_MOTION":15.05604471,"ECCENTRICITY":0.0011105,"INCLINATION":85.8687,"RA_OF_ASC_NODE":128.1663,"ARG_OF_PERICENTER":127.0012,"MEAN_ANOMALY":233.2241,"EPHEMERIS_TYPE":0,"CLASSIFICATION_TYPE":"U","NORAD_CAT_ID":82448,"ELEMENT_SET_NO":999,"REV_AT_EPOCH":45704,"BSTAR":0.00026594,"MEAN_MOTION_DOT":3.87e-5,"MEAN_MOTION_DDOT":0},{"OBJECT_NAME":"UNKNOWN","OBJECT_ID":"","EPOCH":"2026-04-25T03:33:38.173536","MEAN_MOTION":12.39715384,"ECCENTRICITY":0.0093682,"INCLINATION":102.1994,"RA_OF_ASC_NODE":76.5428,"ARG_OF_PERICENTER":321.5863,"MEAN_ANOMALY":37.8555,"EPHEMERIS_TYPE":0,"CLASSIFICATION_TYPE":"U","NORAD_CAT_ID":82453,"ELEMENT_SET_NO":999,"REV_AT_EPOCH":56259,"BSTAR":0.00043023,"MEAN_MOTION_DOT":1.2e-7,"MEAN_MOTION_DDOT":0},{"OBJECT_NAME":"UNKNOWN","OBJECT_ID":"","EPOCH":"2026-04-21T23:10:22.637856","MEAN_MOTION":14.23940852,"ECCENTRICITY":0.0061263,"INCLINATION":66.5129,"RA_OF_ASC_NODE":203.9224,"ARG_OF_PERICENTER":285.1746,"MEAN_ANOMALY":74.2577,"EPHEMERIS_TYPE":0,"CLASSIFICATION_TYPE":"U","NORAD_CAT_ID":82458,"ELEMENT_SET_NO":999,"REV_AT_EPOCH":62857,"BSTAR":0.00097394,"MEAN_MOTION_DOT":2.195e-5,"MEAN_MOTION_DDOT":0},{"OBJECT_NAME":"UNKNOWN","OBJECT_ID":"","EPOCH":"2026-04-25T00:21:02.407680","MEAN_MOTION":13.55853565,"ECCENTRICITY":0.0044162,"INCLINATION":99.3448,"RA_OF_ASC_NODE":134.7477,"ARG_OF_PERICENTER":214.9981,"MEAN_ANOMALY":144.8253,"EPHEMERIS_TYPE":0,"CLASSIFICATION_TYPE":"U","NORAD_CAT_ID":82484,"ELEMENT_SET_NO":999,"REV_AT_EPOCH":60869,"BSTAR":0.00022778,"MEAN_MOTION_DOT":1.18e-6,"MEAN_MOTION_DDOT":0},{"OBJECT_NAME":"UNKNOWN","OBJECT_ID":"","EPOCH":"2026-04-23T00:37:25.138560","MEAN_MOTION":14.91491953,"ECCENTRICITY":0.0009853,"INCLINATION":74.0042,"RA_OF_ASC_NODE":119.1113,"ARG_OF_PERICENTER":246.4595,"MEAN_ANOMALY":113.5552,"EPHEMERIS_TYPE":0,"CLASSIFICATION_TYPE":"U","NORAD_CAT_ID":82494,"ELEMENT_SET_NO":999,"REV_AT_EPOCH":10450,"BSTAR":0.0011203,"MEAN_MOTION_DOT":0.00011205,"MEAN_MOTION_DDOT":0},{"OBJECT_NAME":"UNKNOWN","OBJECT_ID":"","EPOCH":"2026-04-25T14:57:08.285184","MEAN_MOTION":14.19536138,"ECCENTRICITY":0.0121561,"INCLINATION":70.9647,"RA_OF_ASC_NODE":80.232,"ARG_OF_PERICENTER":270.1205,"MEAN_ANOMALY":88.5991,"EPHEMERIS_TYPE":0,"CLASSIFICATION_TYPE":"U","NORAD_CAT_ID":82500,"ELEMENT_SET_NO":999,"REV_AT_EPOCH":63794,"BSTAR":0.0013894,"MEAN_MOTION_DOT":3.107e-5,"MEAN_MOTION_DDOT":0},{"OBJECT_NAME":"UNKNOWN","OBJECT_ID":"","EPOCH":"2026-04-24T04:15:18.254304","MEAN_MOTION":14.36427729,"ECCENTRICITY":0.0131537,"INCLINATION":73.2797,"RA_OF_ASC_NODE":287.434,"ARG_OF_PERICENTER":50.5004,"MEAN_ANOMALY":65.8012,"EPHEMERIS_TYPE":0,"CLASSIFICATION_TYPE":"U","NORAD_CAT_ID":82524,"ELEMENT_SET_NO":999,"REV_AT_EPOCH":59604,"BSTAR":0.0013111,"MEAN_MOTION_DOT":4.212e-5,"MEAN_MOTION_DDOT":0},{"OBJECT_NAME":"UNKNOWN","OBJECT_ID":"","EPOCH":"2026-04-23T04:23:55.475808","MEAN_MOTION":13.4126648,"ECCENTRICITY":0.0238563,"INCLINATION":99.7773,"RA_OF_ASC_NODE":197.3723,"ARG_OF_PERICENTER":279.4971,"MEAN_ANOMALY":106.5213,"EPHEMERIS_TYPE":0,"CLASSIFICATION_TYPE":"U","NORAD_CAT_ID":82529,"ELEMENT_SET_NO":999,"REV_AT_EPOCH":60736,"BSTAR":0.001829,"MEAN_MOTION_DOT":1.155e-5,"MEAN_MOTION_DDOT":0},{"OBJECT_NAME":"UNKNOWN","OBJECT_ID":"","EPOCH":"2026-04-25T03:18:51.864192","MEAN_MOTION":13.91030369,"ECCENTRICITY":0.0010589,"INCLINATION":100.0006,"RA_OF_ASC_NODE":72.6802,"ARG_OF_PERICENTER":323.9237,"MEAN_ANOMALY":54.1178,"EPHEMERIS_TYPE":0,"CLASSIFICATION_TYPE":"U","NORAD_CAT_ID":82560,"ELEMENT_SET_NO":999,"REV_AT_EPOCH":63041,"BSTAR":0.00070887,"MEAN_MOTION_DOT":8.39e-6,"MEAN_MOTION_DDOT":0}]
