UNKNOWN                 
1 82272U          26108.91796761  .00000294  00000+0  10453-2 0  9993
2 82272  67.5264 330.4047 0755939  24.5335 338.9749 12.33684423287628
UNKNOWN                 
1 82303U          26114.64877155  .00026012  00000+0  19257-1 0  9998
2 82303  81.9170 247.6370 0049709 257.0358 122.2498 13.94457611532900
UNKNOWN                 
1 82311U          26115.07267109  .00000481  00000+0  73685-3 0  9996
2 82311  99.4171 167.7834 0106318 331.5094  28.0258 13.54718159568376
UNKNOWN                 
1 82363U          26114.71432985  .00000261  00000+0  50786-3 0  9992
2 82363  66.9371 269.2207 0451151  79.9760 285.1862 13.15745593307756
UNKNOWN                 
1 82369U          26114.48893877  .00000070  00000+0  77057-4 0  9992
2 82369  98.8919 130.5353 0082850 332.6498  27.0316 13.98251467575723
UNKNOWN                 
1 82381U          26115.49134915  .00020983  00000+0  22862-2 0  9996
2 82381  98.3884 352.2359 0009831  70.6716 289.5561 14.87975543530659
UNKNOWN                 
1 82402U          26115.39094224  .00006015  00000+0  41719-3 0  9990
2 82402  86.6565  97.7541 0009583  55.6180 304.5960 15.05385382474560
UNKNOWN                 
1 82432U          26114.90119383  .00001113  00000+0  23780-3 0  9995
2 82432  74.0044  86.4806 0057063 219.0226 140.6816 14.59094746502322
UNKNOWN                 
1 82448U          26114.75555946  .00003870  00000+0  26594-3 0  9992
2 82448  85.8687 128.1663 0011105 127.0012 233.2241 15.05604471457048
UNKNOWN                 
1 82453U          26115.14835849  .00000012  00000+0  43023-3 0  9996
2 82453 102.1994  76.5428 0093682 321.5863  37.8555 12.39715384562591
UNKNOWN                 
1 82458U          26111.96553979  .00002195  00000+0  97394-3 0  9992
2 82458  66.5129 203.9224 0061263 285.1746  74.2577 14.23940852628579
UNKNOWN                 
1 82484U          26115.01461120  .00000118  00000+0  22778-3 0  9994
2 82484  99.3448 134.7477 0044162 214.9981 144.8253 13.55853565608691
UNKNOWN                 
1 82494U          26113.02598540  .00011205  00000+0  11203-2 0  9990
2 82494  74.0042 119.1113 0009853 246.4595 113.5552 14.91491953104501
UNKNOWN                 
1 82500U          26115.62301256  .00003107  00000+0  13894-2 0  9992
2 82500  70.9647  80.2320 0121561 270.1205  88.5991 14.19536138637948
UNKNOWN                 
1 82524U          26114.17729461  .00004212  00000+0  13111-2 0  9999
2 82524  73.2797 287.4340 0131537  50.5004  65.8012 14.36427729596041
UNKNOWN                 
1 82529U          26113.18328097  .00001155  00000+0  18290-2 0  9990
2 82529  99.7773 197.3723 0238563 279.4971 106.5213 13.41266480607363
UNKNOWN                 
1 82560U          26115.13810028  .00000839  00000+0  70887-3 0  9991
2 82560 100.0006  72.6802 0010589 323.9237  54.1178 13.91030369630412
